[
    {
        "Altitude(m)": 607886.6646997414,
        "Argument of Periapsis(deg)": 0.0,
        "Eccentricity": 0.0,
        "Inclination(deg)": 60.0,
        "Latitude(deg)": 40.99837120128682,
        "Longitude(deg)": -90.02704343578526,
        "Mean Anomaly(deg)": -310.9091,
        "RAAN(deg)": 340.00000000000006,
        "Satellite Name": "Test1 1499",
        "Satellite Number": 1499,
        "Semi-Major Axis(m)": 6980739.136638005,
        "Time(s)": 0
    },
    {
        "Altitude(m)": 607987.5787709682,
        "Argument of Periapsis(deg)": 0.00010418945913296404,
        "Eccentricity": 0.0,
        "Inclination(deg)": 60.0,
        "Latitude(deg)": 41.46346152169743,
        "Longitude(deg)": -89.52281650213654,
        "Mean Anomaly(deg)": -310.2889938545382,
        "RAAN(deg)": 339.99957995086027,
        "Satellite Name": "Test1 1499",
        "Satellite Number": 1499,
        "Semi-Major Axis(m)": 6980739.136638005,
        "Time(s)": 10
    }
]